[{"OBJECT_NAME":"STARLINK-2666","OBJECT_ID":"2021-044AE","EPOCH":"2026-03-09T09:41:56.845824","MEAN_MOTION":15.06412995,"ECCENTRICITY":0.00014416,"INCLINATION":53.0551,"RA_OF_ASC_NODE":113.3735,"ARG_OF_PERICENTER":97.7439,"MEAN_ANOMALY":262.3713,"EPHEMERIS_TYPE":0,"CLASSIFICATION_TYPE":"U","NORAD_CAT_ID":48666,"ELEMENT_SET_NO":999,"REV_AT_EPOCH":26379,"BSTAR":8.8652646e-5,"MEAN_MOTION_DOT":1.04e-5,"MEAN_MOTION_DDOT":0},{"OBJECT_NAME":"STUDSAT","OBJECT_ID":"2010-035B","EPOCH":"2026-03-09T18:37:00.077376","MEAN_MOTION":15.04045903,"ECCENTRICITY":0.00117838,"INCLINATION":98.1026,"RA_OF_ASC_NODE":330.9975,"ARG_OF_PERICENTER":15.8359,"MEAN_ANOMALY":344.3232,"EPHEMERIS_TYPE":0,"CLASSIFICATION_TYPE":"U","NORAD_CAT_ID":36796,"ELEMENT_SET_NO":999,"REV_AT_EPOCH":85020,"BSTAR":0.00039642444,"MEAN_MOTION_DOT":5.425e-5,"MEAN_MOTION_DDOT":0}]
